[{"OBJECT_NAME":"TEVEL2-2","OBJECT_ID":"2025-052K","EPOCH":"2026-03-09T15:33:48.895776","MEAN_MOTION":15.30343745,"ECCENTRICITY":0.0004693,"INCLINATION":97.3987,"RA_OF_ASC_NODE":324.77,"ARG_OF_PERICENTER":105.793,"MEAN_ANOMALY":254.3828,"EPHEMERIS_TYPE":0,"CLASSIFICATION_TYPE":"U","NORAD_CAT_ID":63219,"ELEMENT_SET_NO":999,"REV_AT_EPOCH":5485,"BSTAR":0.00069428,"MEAN_MOTION_DOT":0.00020339,"MEAN_MOTION_DDOT":0},{"OBJECT_NAME":"STARLINK-34653","OBJECT_ID":"2025-157P","EPOCH":"2026-03-09T23:27:42.734880","MEAN_MOTION":15.3020321,"ECCENTRICITY":0.00010209,"INCLINATION":53.1591,"RA_OF_ASC_NODE":344.6286,"ARG_OF_PERICENTER":98.4703,"MEAN_ANOMALY":261.6413,"EPHEMERIS_TYPE":0,"CLASSIFICATION_TYPE":"U","NORAD_CAT_ID":64917,"ELEMENT_SET_NO":999,"REV_AT_EPOCH":3611,"BSTAR":0.00075614537,"MEAN_MOTION_DOT":0.00022105,"MEAN_MOTION_DDOT":0}]
